OBJECT_NAME,OBJECT_ID,EPOCH,MEAN_MOTION,ECCENTRICITY,INCLINATION,RA_OF_ASC_NODE,ARG_OF_PERICENTER,MEAN_ANOMALY,EPHEMERIS_TYPE,CLASSIFICATION_TYPE,NORAD_CAT_ID,ELEMENT_SET_NO,REV_AT_EPOCH,BSTAR,MEAN_MOTION_DOT,MEAN_MOTION_DDOT
SAUDISAT 1C (SO-50),2002-058C,2026-06-09T16:05:11.410944,14.83030513,.00754288,64.5504,152.2423,263.8699,95.3809,0,U,27607,999,26334,.13084659E-3,.963E-5,0
SAUDISAT 2,2004-025F,2026-06-10T05:29:21.546240,14.56679788,.0023888,98.5506,161.0308,320.5054,39.4402,0,U,28371,999,16473,.63647821E-4,.235E-5,0
SAUDISAT 3,2007-012B,2026-06-10T02:50:34.050624,14.71421550,.00133358,98.1453,111.5145,248.2816,111.6972,0,U,31118,999,2670,.4570318E-4,.232E-5,0
PISAT,2016-059B,2026-06-10T06:20:36.246624,14.68971671,.0027883,97.8178,162.0146,225.5900,134.3023,0,U,41784,999,51872,.14543419E-3,.809E-5,0
FLYING LAPTOP,2017-042G,2026-06-10T06:04:21.234720,15.01099954,.0019271,97.4660,317.0547,144.3500,215.9016,0,U,42831,999,48541,.24142446E-3,.3044E-4,0
SALSAT,2020-068K,2026-06-10T06:39:18.129024,15.29700288,.00086487,97.8853,163.9217,336.5873,23.4971,0,U,46495,999,31430,.26694921E-3,.7605E-4,0
